128P/Shoemaker-Holt,e,4.3672,214.2962,210.3183,4.492569,0.1035051,0.32064704,158.7508,03/23.0/2021,2000,g  8.5,4.0
# From MPEC 2019-TG9
129P/Shoemaker-Levy,e,3.4424,184.8841,307.8908,4.282944,0.1111963,0.08398691,290.9844,03/23.0/2021,2000,g 11.0,4.0
# From MPC 78188
130P/McNaught-Hughes,e,6.0630,70.2309,245.9982,3.383829,0.1583403,0.46136672,182.9510,03/23.0/2021,2000,g 10.0,6.0
# From MPC102101
131P/Mueller,e,7.3548,214.1610,179.0281,3.680857,0.1395663,0.34384910,110.0805,03/23.0/2021,2000,g 11.0,4.0
# From MPEC 2020-HN5
132P/Helin-Roman-Alu,e,5.3804,174.0151,216.3479,3.888577,0.1285340,0.56505978,329.7774,03/23.0/2021,2000,g 11.0,6.0
# From MPC 94676
133P/Elst-Pizarro,e,1.3892,160.1117,131.8101,3.164520,0.1750823,0.15700107,159.8892,03/23.0/2021,2000,g 15.4,2.0
# From MPC 89012
134P/Kowal-Vavrova,e,4.3407,202.0752,18.8863,6.259767,0.0629313,0.58620760,157.3034,03/23.0/2021,2000,g 11.5,4.0
# From MPEC 2021-F20
135P/Shoemaker-Levy,e,6.0617,213.0320,22.2872,3.803429,0.1328743,0.29534449,309.4812,03/23.0/2021,2000,g  7.0,8.0
# From MPEC 2020-W26
136P/Mueller,e,9.4244,137.4482,224.8935,4.193843,0.1147588,0.29264904,201.4710,03/23.0/2021,2000,g 11.0,4.0
# From MPEC 2021-F20
137P/Shoemaker-Levy,e,4.8536,233.0398,141.0257,4.520548,0.1025457,0.57344707,85.1478,03/23.0/2021,2000,g 11.0,4.0
# From MPEC 2016-U66
138P/Shoemaker-Levy,e,10.0910,309.3317,95.5495,3.622400,0.1429583,0.53044355,98.6655,03/23.0/2021,2000,g 15.0,6.0
# From MPEC 2020-HN5
139P/Vaisala-Oterma,e,2.3338,242.1785,165.7338,4.523060,0.1024603,0.24667248,122.9003,03/23.0/2021,2000,g  9.5,4.0
# From MPEC 2015-E14
140P/Bowell-Skiff,e,3.8323,343.2863,172.8850,6.431085,0.0604335,0.69140674,124.2694,03/23.0/2021,2000,g 11.5,6.0
# From MPEC 2021-AJ0
141P/Machholz,e,13.9449,241.8479,153.5469,3.057105,0.1843905,0.73572075,17.8340,03/23.0/2021,2000,g 14.7,4.0
# From MPC 71683
142P/Ge-Wang,e,12.2489,175.9343,173.9567,5.005283,0.0880159,0.49792097,355.5439,03/23.0/2021,2000,g  9.0,4.0
# From MPEC 2021-BE3
143P/Kowal-Mrkos,e,4.6975,245.2385,320.4201,4.283291,0.1111828,0.41068826,117.0184,03/23.0/2021,2000,g 13.5,2.0
# From MPC104795
144P/Kushida,e,3.9462,243.3886,216.2087,3.817394,0.1321459,0.63665238,222.7571,03/23.0/2021,2000,g  8.5,8.0
# From MPC108598
145P/Shoemaker-Levy,e,11.2711,26.7877,10.2457,4.138928,0.1170502,0.54130622,152.0281,03/23.0/2021,2000,g 13.5,4.0
# From MPC100284
146P/Shoemaker-LINEAR,e,23.0924,53.4040,316.9345,4.032545,0.1217125,0.64691054,210.0898,03/23.0/2021,2000,g 15.0,4.0
# From MPC 75720
147P/Kushida-Muramatsu,e,2.3427,93.1397,350.2780,3.983066,0.1239875,0.23261488,237.2313,03/23.0/2021,2000,g 14.0,4.0
# From MPEC 2014-R70
148P/Anderson-LINEAR,e,3.6601,89.3118,7.6922,3.628340,0.1426074,0.55010417,296.2098,03/23.0/2021,2000,g  9.0,4.0
# From MPC 75720
149P/Mueller,e,30.2386,144.8794,44.6825,4.343000,0.1088979,0.39375595,82.8266,03/23.0/2021,2000,g  8.0,8.0
# From MPC 75720
150P/LONEOS,e,18.5065,272.3911,245.5551,3.879762,0.1289723,0.54687466,219.7775,03/23.0/2021,2000,g 13.5,4.0
# From MPEC 2015-Q71
151P/Helin,e,4.7282,143.1552,216.0466,5.763822,0.0712260,0.57337726,141.7918,03/23.0/2021,2000,g 10.0,6.0
# From MPC 79346
152P/Helin-Lawrence,e,9.8797,91.8627,163.8894,4.478772,0.1039838,0.30892185,329.1751,03/23.0/2021,2000,g 11.5,4.0
# From MPC 46101
153P/Ikeya-Zhang,e,27.7861,93.1221,35.1319,50.70602,0.0027297,0.98962483,0.0000,03/07.1174/2002,2000,g  9.0,4.0
# From MPC 87068
154P/Brewington,e,17.6323,343.0327,47.8371,4.803106,0.0936312,0.67552000,249.5875,03/23.0/2021,2000,g  2.5,12.0
# From MPEC 2020-SI8
155P/Shoemaker,e,6.3961,97.1948,14.6324,6.580105,0.0583922,0.72624225,28.8501,03/23.0/2021,2000,g 10.0,4.8
# From MPEC 2021-F20
156P/Russell-LINEAR,e,17.2622,35.3672,0.4332,3.460583,0.1531018,0.61479720,19.1562,03/23.0/2021,2000,g 15.5,2.0
# From MPC104795
157P/Tritton,e,12.5133,287.7961,154.8766,3.549923,0.1473587,0.55932570,281.2206,03/23.0/2021,2000,g 10.0,4.0
# From MPEC 2016-K18
158P/Kowal-LINEAR,e,8.0086,135.5352,173.2000,4.949342,0.0895123,0.03036678,354.6301,03/23.0/2021,2000,g  9.0,4.0
# From MPEC 2021-F20
159P/LONEOS,e,23.4641,54.9875,4.5835,5.854766,0.0695728,0.38165435,72.0826,03/23.0/2021,2000,g 10.0,4.0
# From MPEC 2021-F20
160P/LINEAR,e,15.6166,333.3604,12.6959,3.773896,0.1344371,0.52628865,64.0748,03/23.0/2021,2000,g 15.5,2.0
# From MPC 75721
161P/Hartley-IRAS,e,95.7750,1.5265,46.9406,7.725544,0.0458998,0.83470239,264.6684,03/23.0/2021,2000,g  8.5,6.0
# From MPEC 2021-F20
162P/Siding Spring,e,27.5545,30.9100,357.1384,3.090796,0.1813838,0.58290746,19.0771,03/23.0/2021,2000,g 12.0,4.0
# From MPEC 2020-HN5
163P/NEAT,e,12.7082,102.0881,349.6240,3.768108,0.1347470,0.45183617,80.3022,03/23.0/2021,2000,g 14.5,4.0
# From MPEC 2021-F20
164P/Christensen,e,16.2550,88.2943,325.8377,3.657052,0.1409313,0.53994557,144.6880,03/23.0/2021,2000,g 11.0,4.0
# From MPC 75721
165P/LINEAR,e,15.8968,0.8193,126.0732,17.88587,0.0130298,0.61483337,99.2467,03/23.0/2021,2000,g 11.5,2.0
# From MPC 75722
166P/NEAT,e,15.3671,64.4595,321.4455,13.82219,0.0191796,0.38312358,132.1282,03/23.0/2021,2000,g  5.5,4.0
# From MPC 75722
167P/CINEOS,e,19.1206,295.6575,344.4321,16.20798,0.0151047,0.27237807,109.6005,03/23.0/2021,2000,g  9.5,2.0
# From MPC102101
168P/Hergenrother,e,21.6186,355.4543,14.9962,3.582222,0.1453702,0.62086106,86.6005,03/23.0/2021,2000,g 15.5,4.0
# From MPEC 2021-F20
169P/NEAT,e,11.2981,176.1013,218.0522,2.601312,0.2349176,0.76813730,248.7058,03/23.0/2021,2000,g 16.0,2.0
# From MPC 89012
170P/Christensen,e,10.1250,142.9222,225.6179,4.198471,0.1145691,0.30370637,273.0103,03/23.0/2021,2000,g 12.0,4.0
# From MPC102102
171P/Spahr,e,21.9341,101.6957,347.0910,3.555649,0.1470028,0.50158089,117.5455,03/23.0/2021,2000,g 13.5,4.0
# From MPEC 2021-BE3
172P/Yeung,e,11.2294,30.8939,209.4144,4.212420,0.1140005,0.20562607,167.6775,03/23.0/2021,2000,g 13.0,4.0
# From MPEC 2021-F20
173P/Mueller,e,16.4956,100.4029,29.2457,5.703876,0.0723517,0.26071413,340.5189,03/23.0/2021,2000,g  7.5,4.0
# From MPC 92985
174P/Echeclus,e,4.3432,173.2294,163.0483,10.71523,0.0280997,0.45736777,60.6763,03/23.0/2021,2000,g  9.4,2.0
# From MPC114608
175P/Hergenrother,e,6.0797,123.5195,56.6159,3.441985,0.1543443,0.43371187,82.9870,03/23.0/2021,2000,g 14.0,4.0
# From MPC 89015
176P/LINEAR,e,0.2348,345.8906,35.0521,3.193629,0.1726941,0.19305102,254.5606,03/23.0/2021,2000,g 15.1,2.0
# From MPEC 2020-L06
177P/Barnard,e,31.2948,272.2769,60.2181,24.41178,0.0081716,0.95527774,43.4404,03/23.0/2021,2000,g 15.0,4.0
# From MPEC 2020-SI8
178P/Hug-Bell,e,11.0892,102.8746,297.7914,3.631725,0.1424081,0.48199781,35.5114,03/23.0/2021,2000,g 13.5,4.0
# From MPC 75723
179P/Jedicke,e,19.8985,115.5235,296.7312,5.936932,0.0681335,0.30615877,330.5656,03/23.0/2021,2000,g  2.5,8.0
# From MPC100284
180P/NEAT,e,16.8667,84.5653,94.8256,3.862617,0.1298320,0.35308069,250.7141,03/23.0/2021,2000,g 11.0,4.0
# From MPC 89012
181P/Shoemaker-Levy,e,17.4866,35.4119,336.2444,3.872238,0.1293484,0.70052065,322.2589,03/23.0/2021,2000,g 11.5,4.0
# From MPEC 2014-J10
182P/LONEOS,e,16.2233,72.5512,54.0629,2.953537,0.1941737,0.66289087,279.3595,03/23.0/2021,2000,g 18.0,4.0
# From MPC110085
183P/Korlevic-Juric,e,18.7405,4.7567,165.6796,4.534267,0.1020807,0.13763236,123.1230,03/23.0/2021,2000,g 12.5,2.0
# From MPEC 2020-W26
184P/Lovas,e,4.5732,173.2540,186.4444,3.793095,0.1334177,0.55094255,19.7192,03/23.0/2021,2000,g 13.5,4.0
# From MPC109593
185P/Petriew,e,14.0045,214.0971,181.8752,3.099039,0.1806606,0.69916833,207.8445,03/23.0/2021,2000,g 15.0,4.0
# From MPEC 2020-W26
186P/Garradd,e,28.8023,326.6347,280.5805,4.972783,0.0888802,0.12233001,63.9100,03/23.0/2021,2000,g  7.5,4.0
# From MPEC 2020-SI8
187P/LINEAR,e,13.6344,109.9210,131.9332,4.570364,0.1008737,0.15213224,105.1115,03/23.0/2021,2000,g  9.0,4.0
# From MPC106349
188P/LINEAR-Mueller,e,10.5236,358.9601,26.5652,4.374637,0.1077187,0.41570996,160.9819,03/23.0/2021,2000,g 11.5,4.0
# From MPC106349
189P/NEAT,e,20.0710,281.7350,16.2795,2.946798,0.1948402,0.58876152,257.9481,03/23.0/2021,2000,g 19.0,4.0
# From MPEC 2020-K19
190P/Mueller,e,2.1743,335.5797,50.2740,4.234473,0.1131111,0.52126719,204.7284,03/23.0/2021,2000,g 13.0,4.0
# From MPEC 2021-BE3
191P/McNaught,e,8.8428,98.2321,284.0048,3.634161,0.1422649,0.38578398,0.4123,03/23.0/2021,2000,g 13.0,4.0
# From MPC 75724
192P/Shoemaker-Levy,e,24.5524,51.6259,312.9494,6.476978,0.0597923,0.77313841,290.7274,03/23.0/2021,2000,g 15.0,4.0
# From MPC 92277
193P/LINEAR-NEAT,e,10.6876,335.1775,8.1631,3.579149,0.1455575,0.39434228,337.3752,03/23.0/2021,2000,g 14.0,4.0
# From MPC 98566
194P/LINEAR,e,11.3193,351.0491,131.1619,3.981606,0.1240557,0.58127328,229.3757,03/23.0/2021,2000,g 16.0,4.0
# From MPC 75724
195P/Hill,e,36.3364,243.1159,249.3497,6.502011,0.0594474,0.31328161,265.5473,03/23.0/2021,2000,g  8.5,4.0
# From MPC 92985
196P/Tichy,e,19.2943,24.1774,12.2444,3.800576,0.1330240,0.42853517,282.0526,03/23.0/2021,2000,g 13.5,4.0
# From MPC 94676
197P/LINEAR,e,25.5380,66.3873,188.7467,2.867630,0.2029642,0.62966764,233.2310,03/23.0/2021,2000,g 16.5,2.0
# From NK 1596
198P/ODAS,e,1.3387,358.2536,69.2067,3.599169,0.1443447,0.44329846,119.8403,03/23.0/2021,2000,g  9.0,4.0
# From MPC 75725
199P/Shoemaker,e,24.9329,92.3864,191.6471,5.894576,0.0688692,0.50605464,300.2351,03/23.0/2021,2000,g 10.0,4.0
# From MPEC 2021-F20
200P/Larsen,e,12.1013,234.7955,134.0688,4.940334,0.0897573,0.33249860,54.1195,03/23.0/2021,2000,g  9.0,4.0
# From MPC 93588
201P/LONEOS,e,5.7390,19.7492,41.5407,3.353518,0.1604919,0.63698268,349.6208,03/23.0/2021,2000,g 14.0,4.0
# From MPC103849
202P/Scotti,e,2.0646,178.7457,277.2963,4.041328,0.1213160,0.27070808,219.7648,03/23.0/2021,2000,g 13.5,4.0
# From MPEC 2020-UR0
203P/Korlevic,e,2.9731,290.3463,154.8255,4.671221,0.0976244,0.31511440,37.4100,03/23.0/2021,2000,g 14.5,2.0
# From MPC 98566
204P/LINEAR-NEAT,e,6.6151,108.7185,355.8161,3.602911,0.1441199,0.48759218,273.1029,03/23.0/2021,2000,g 14.0,4.0
# From MPC 98566
205P/Giacobini,e,15.3043,179.6044,154.2071,3.542246,0.1478380,0.56800531,316.1748,03/23.0/2021,2000,g 13.0,4.0
